satname,norad_id,inclination_deg,eccentricity,mean_motion_rev_per_day,perigee_km,apogee_km,l1,l2
STARLINK-1184,45098,53.0524,0.0001635,15.0714575,543.7949631565971,546.0588050466977,1 45098U 20006BG  26001.76310442  .00007928  00000+0  53964-3 0  9995,2 45098  53.0524 186.9898 0001635 134.4395 225.6729 15.07145750326931
STARLINK-1193,45100,53.0541,0.0001452,15.06391822,546.2310581938445,548.2421866938012,1 45100U 20006BJ  26001.76645188  .00001189  00000+0  98739-4 0  9990,2 45100  53.0541 187.0478 0001452  96.8186 263.2968 15.06391822326931
STARLINK-1143,45179,53.0531,0.0003506,15.49990745,414.3708288152384,419.13540576548166,1 45179U 20012B   26001.10734995  .00113999  00000+0  19795-2 0  9992,2 45179  53.0531 296.9554 0003506  96.7567 263.3840 15.49990745325402
STARLINK-1202,45183,53.0566,0.0001577,15.06406243,546.100299658332,548.2845485586959,1 45183U 20012F   26001.36467072  .00000261  00000+0  36430-4 0  9998,2 45183  53.0566 348.8463 0001577 135.7571 224.3544 15.06406243324692
STARLINK-1216,45185,53.0557,0.0001436,15.06407303,546.1946985467421,548.1836522243129,1 45185U 20012H   26001.35730228  .00001657  00000+0  13010-3 0  9993,2 45185  53.0557 348.8818 0001436  82.5109 277.6043 15.06407303324635
STARLINK-1225,45187,53.0552,0.0001411,15.0640878,546.2074857489079,548.1618115181518,1 45187U 20012K   26001.24303185  .00002534  00000+0  18892-3 0  9999,2 45187  53.0552 349.3974 0001411  89.4547 270.6604 15.06408780324665
STARLINK-1230,45189,53.0542,0.0001433,15.06405815,546.201335963674,548.1861357525695,1 45189U 20012M   26001.37942305  .00001129  00000+0  94686-4 0  9993,2 45189  53.0542 348.7865 0001433  94.7351 265.3801 15.06405815321915
STARLINK-1234,45190,53.0513,0.0013144,15.47653963,414.6508816251526,432.5312643834668,1 45190U 20012N   26001.79415194  .00132349  00000+0  24798-2 0  9996,2 45190  53.0513 288.5771 0013144  78.2901 281.9580 15.47653963325479
STARLINK-1269,45197,53.0553,0.0001542,15.06409306,546.1151521857828,548.2509208850506,1 45197U 20012V   26001.39047337  .00001059  00000+0  89945-4 0  9999,2 45197  53.0553 348.7321 0001542 106.0358 254.0801 15.06409306324667
STARLINK-1154,45198,53.0554,0.00017,15.26002741,486.6088391468047,488.94324958188827,1 45198U 20012W   26001.91668980  .01637814  00000+0  56924-1 0  9994,2 45198  53.0554 325.6110 0001700  94.8333 324.6228 15.26002741  5647
STARLINK-1199,45201,53.0533,0.0001356,15.06423346,546.2009391726797,548.0790742969057,1 45201U 20012Z   26001.32596723  .00007262  00000+0  50560-3 0  9998,2 45201  53.0533 329.0242 0001356 101.6468 258.4674 15.06423346324960
STARLINK-1209,45206,53.0525,0.0013468,15.40038724,436.80418032168564,455.1856620646113,1 45206U 20012AE  26001.79518747  .00099951  00000+0  24353-2 0  9990,2 45206  53.0525 292.1203 0013468  75.5114 284.7383 15.40038724324573
STARLINK-1210,45207,53.0177,0.0003516,15.75243083,341.5760673349705,346.30303156454283,1 45207U 20012AF  26001.91668980  .00127379  00000+0  82221-3 0  9995,2 45207  53.0177 239.8685 0003516 181.2265 316.5377 15.75243083  6022
STARLINK-1231,45212,53.0493,0.0001167,15.16425723,515.8489565220143,517.4582006430546,1 45212U 20012AL  26001.21574917  .00066636  00000+0  33714-2 0  9990,2 45212  53.0493 324.4251 0001167 118.9935 241.1175 15.16425723324974
STARLINK-1271,45217,53.0556,0.0001732,15.06411277,545.9775313890077,548.3764601571447,1 45217U 20012AR  26001.17853548  .00001867  00000+0  14418-3 0  9996,2 45217  53.0556 329.6894 0001732  79.8511 280.2673 15.06411277324944
STARLINK-1191,45222,53.0552,0.0001217,15.06404107,546.3561572157696,548.0417839910142,1 45222U 20012AW  26001.25410243  .00014015  00000+0  95777-3 0  9998,2 45222  53.0552 309.3479 0001217  89.0065 271.1063 15.06404107325234
STARLINK-1212,45223,53.0546,0.0001413,15.20139555,504.44664267745793,506.39193568478004,1 45223U 20012AX  26001.91668980  .00964992  00000+0  40610-1 0  9997,2 45223  53.0546 306.6324 0001413  93.1341   6.6857 15.20139555  5783
STARLINK-1215,45225,53.0547,0.0001196,15.06399884,546.3836417315433,548.040185191644,1 45225U 20012AZ  26001.16195252  .00012006  00000+0  82355-3 0  9997,2 45225  53.0547 309.7619 0001196  92.8223 267.2903 15.06399884325172
STARLINK-1221,45227,53.0663,0.000531,15.39253794,444.6898187505858,451.939510418375,1 45227U 20012BB  26001.76723860  .00025589  00000+0  65509-3 0  9999,2 45227  53.0663 226.0882 0005310 140.6389 219.5001 15.39253794326392
STARLINK-1222,45228,53.0582,0.0002342,15.42739928,436.4306066142335,439.62329780944947,1 45228U 20012BC  26001.21459226  .00033046  00000+0  75081-3 0  9995,2 45228  53.0582 304.8197 0002342  94.8356 265.2917 15.42739928325185
STARLINK-1226,45229,53.0552,0.0001398,15.06403623,546.2322918112732,548.168616163407,1 45229U 20012BD  26001.22462419  .00007504  00000+0  52209-3 0  9992,2 45229  53.0552 309.4789 0001398  87.0940 273.0208 15.06403623325128
STARLINK-1227,45230,53.0553,0.0001627,15.06406947,546.0635157194001,548.3170172119071,1 45230U 20012BE  26001.55266112  .00008587  00000+0  59455-3 0  9994,2 45230  53.0553 308.0062 0001627  95.6714 264.4461 15.06406947325294
STARLINK-1246,45235,53.0546,0.0001455,15.06416392,546.1536883692661,548.1689501801748,1 45235U 20012BK  26001.36836532  .00009544  00000+0  65844-3 0  9990,2 45235  53.0546 348.8345 0001455  94.0243 266.0912 15.06416392324716
STARLINK-1270,45237,53.0546,0.0001217,15.36932788,454.3539851539599,456.01721587492557,1 45237U 20012BM  26001.91668980  .00040247  00000+0  11030-2 0  9995,2 45237  53.0546 303.9788 0001217  84.5611 139.2939 15.36932788  5586
STARLINK-1279,45360,53.0489,0.0003086,15.43441134,433.85951502593525,438.06517714233905,1 45360U 20019A   26001.78906571  .00031530  00000+0  70024-3 0  9999,2 45360  53.0489  59.9747 0003086 282.7658  77.3002 15.43441134320290
STARLINK-1301,45361,53.0479,0.0005094,15.48462919,417.75834396324717,424.68553084867654,1 45361U 20019B   26001.82607740  .00107708  00000+0  19749-2 0  9998,2 45361  53.0479  68.1924 0005094 303.6971  56.3550 15.48462919320194
STARLINK-1306,45362,53.0349,0.0005502,16.0245257,263.9725985951318,271.28559961058454,1 45362U 20019C   26001.45112896  .00572627  16117-3  94941-3 0  9995,2 45362  53.0349  41.4955 0005502  47.6041 312.5455 16.02452570320527
STARLINK-1262,45366,53.0568,0.0001365,15.06398116,546.2720212666136,548.1626429992848,1 45366U 20019G   26001.54897838  .00000242  00000+0  35167-4 0  9990,2 45366  53.0568 108.0257 0001365  80.7114 279.4030 15.06398116319617
STARLINK-1273,45367,53.0564,0.0001339,15.06370899,546.3734336331327,548.228065862515,1 45367U 20019H   26001.70380208 -.00001374  00000+0 -73437-4 0  9998,2 45367  53.0564 107.3268 0001339  91.3515 268.7628 15.06370899319636
STARLINK-1276,45368,53.0554,0.000146,15.06410393,546.1686088343367,548.1908013122184,1 45368U 20019J   26001.60794362  .00007980  00000+0  55385-3 0  9996,2 45368  53.0554 107.7623 0001460  82.5882 277.5273 15.06410393319626
STARLINK-1277,45369,53.055,0.0001265,15.06382241,546.3899237723508,548.1420507281246,1 45369U 20019K   26001.60065977  .00000865  00000+0  76961-4 0  9999,2 45369  53.0550 108.4169 0001265 107.2115 252.9013 15.06382241319611
STARLINK-1281,45370,53.0568,0.0001428,15.06412383,546.184671732185,548.1625404412844,1 45370U 20019L   26001.59688024  .00003274  00000+0  23852-3 0  9990,2 45370  53.0568 107.8141 0001428  94.9605 265.1547 15.06412383319622
STARLINK-1300,45374,53.0566,0.0001468,15.06412185,546.1575772339138,548.1908486060265,1 45374U 20019Q   26001.55265107  .00003081  00000+0  22559-3 0  9992,2 45374  53.0566 108.0121 0001468  85.0651 275.0506 15.06412185319615
STARLINK-1302,45375,53.0561,9.59e-05,15.06382743,546.6003026638082,547.9285946616619,1 45375U 20019R   26001.70010748 -.00001849  00000+0 -10536-3 0  9993,2 45375  53.0561 107.3439 0000959  81.9604 278.1493 15.06382743319639
STARLINK-1304,45376,53.0551,9.41e-05,15.2173788,499.9511581058987,501.24573611704545,1 45376U 20019S   26001.91668980  .01708348  00000+0  68127-1 0  9998,2 45376  53.0551 105.9556 0000941  71.1451 138.8867 15.21737880  5772
STARLINK-1305,45377,53.0503,0.0002947,15.41337647,440.1505320573633,444.17041538837475,1 45377U 20019T   26001.91668980  .00080287  00000+0  18858-2 0  9990,2 45377  53.0503  91.1463 0002947 243.5460 205.2382 15.41337647  5866
STARLINK-1319,45379,53.0522,0.000399,15.44815614,429.202695091476,434.6371205038986,1 45379U 20019V   26001.53663132  .00033700  00000+0  71362-3 0  9992,2 45379  53.0522  93.2731 0003990 238.1193 121.9424 15.44815614319825
STARLINK-1266,45383,53.0554,0.0001875,15.06378467,545.9790390391763,548.5760694970277,1 45383U 20019Z   26001.60610551 -.00004248  00000+0 -26662-3 0  9992,2 45383  53.0554  87.7712 0001875  77.4459 282.6739 15.06378467319890
STARLINK-1267,45384,53.0564,0.0001152,15.37714406,452.0828936784483,453.65675765108153,1 45384U 20019AA  26001.61017814  .00104009  00000+0  27397-2 0  9996,2 45384  53.0564  85.8050 0001152  38.1042 322.0042 15.37714406319927
STARLINK-1272,45386,53.0505,0.0004792,15.43843194,431.51449040919306,438.0439893334851,1 45386U 20019AC  26001.84673355  .00034170  00000+0  74751-3 0  9999,2 45386  53.0505  70.3114 0004792 285.8237  74.2240 15.43843194320162
STARLINK-1274,45387,53.0324,0.0004064,15.37472712,450.8092940608367,456.36211827641,1 45387U 20019AD  26001.59190352  .00085910  00000+0  22876-2 0  9991,2 45387  53.0324  61.3694 0004064  20.2782 339.8381 15.37472712320267
STARLINK-1280,45388,53.0497,0.0003538,15.50227533,413.6573930942568,418.46496772671526,1 45388U 20019AE  26001.55406193  .00123514  00000+0  21236-2 0  9993,2 45388  53.0497  88.5761 0003538 247.1179 112.9456 15.50227533319872
STARLINK-1283,45389,53.0504,0.0005406,15.42416912,435.2932226864732,442.6638880249229,1 45389U 20019AF  26001.91668980  .00072143  00000+0  16368-2 0  9999,2 45389  53.0504  70.0508 0005406   5.2752 160.2209 15.42416912  5868
